SHIYAN-24C 01           
1 58650U 23206A   26068.89348774  .00002076  00000+0  18089-3 0  9992
2 58650  97.3976  41.7846 0003675 132.3262 227.8273 14.97903598120444
STARLINK-34007          
1 63868U 25094E   26068.85516420 -.00011983  00000+0 -99610-3 0  9995
2 63868  70.0017 234.2102 0004582 277.8261  82.2378 14.98405216 47229
